X,Y,neighborhood_id,neighborhood_name,device_serial,device_connectedto,device_address,device_lat,device_long,device_tags,etl_updatedtimestamp,is_current,org1,org2,inside_outside,landmark,ObjectId
-7917518.63263821,5199476.66831794,N_568579452955538316,Hyde Park,Q2CK-NERF-4JX7,HP-BPDE18-AP2,"1249 Hyde Park Ave., Hyde Park, MA",42.25648,-71.12428, recently-added ,2021/06/28 07:56:19+00,1,,,,,1
-13591946.3780132,4497545.18967124,N_601230550253962257,Columbus Park,Q2CK-LKWC-GD4B,COLUMBUSPARK-AP1,,37.4180951010362,-122.098531723022, recently-added ,2021/06/28 07:56:31+00,1,,,,,2
0,0,N_601230550253962397,Main Streets Staging,Q2CK-F8JM-ME8S,,,0,0, recently-added ,2021/06/28 07:56:33+00,1,,,,,3
-7911233.47255324,5208237.6067325,N_568579452955534204,Dorchester,Q2CK-CXHG-U3Q7,DOT-BPL-AP3,"500 Columbia Rd., Dorchester, MA",42.314702906365,-71.0678194463253, BPL Outside Uphams-Corner-Branch ,2021/06/28 07:56:16+00,1,BPL,,Outside,Uphams Corner Branch,4
-7923997.41123936,5213540.38824702,N_568579452955534204,Dorchester,Q2CK-HPSU-2K3Q,DOT-GREENWOOD-AP2,"189 Glenway Street, Dorchester, MA",42.3499176629195,-71.1824798583984, BPS Greenwood-School Outside ,2021/06/28 07:56:16+00,1,BPS,,Outside,Greenwood School,5
-7910753.23511305,5208798.10501948,N_568579452955534204,Dorchester,Q2CK-H48M-P2E9,DOT-BFD21-AP3,"641 Columbia Rd., Dorchester, MA",42.318426,-71.0635054, BFD Engine-21 Outside ,2021/06/28 07:56:16+00,1,BFD,,Outside,Engine 21,6
-7910263.94142321,5205732.48264666,N_568579452955534204,Dorchester,Q2CK-NE73-ZSQB,DOT-BPDC11-AP1,"40 Gibson st, Dorchester, ma",42.29806,-71.05911, recently-added ,2021/06/28 07:56:16+00,1,,,,,7
-7910753.23511305,5208798.10501948,N_568579452955534204,Dorchester,Q2CK-ZRF5-JNQU,DOT-BFD21-AP1,"641 Columbia Rd., Dorchester, MA",42.318426,-71.0635054, BFD Engine-21 Outside ,2021/06/28 07:56:16+00,1,BFD,,Outside,Engine 21,8
-7911214.60987459,5208244.69630194,N_568579452955534204,Dorchester,Q2CK-J2D4-6Y8J,DOT-BPL-AP6,"500 Columbia road, Dorchester, ma",42.31475,-71.06765, BPL Outside Uphams-Corner-Branch ,2021/06/28 07:56:16+00,1,BPL,,Outside,Uphams Corner Branch,9
-7911347.08006863,5207976.73525247,N_568579452955534204,Dorchester,Q2CK-FQLH-FDJH,DOT-BPL-AP5,"63 Glendale St, Dorchester, MA",42.31297,-71.06884, BPL Outside Uphams-Corner-Branch ,2021/06/28 07:56:16+00,1,BPL,,Outside,Uphams Corner Branch,10
-7911607.07759896,5206605.34951248,N_568579452955534204,Dorchester,Q2CK-N5NK-M8VH,DOT-MATHER-AP2,"1 Meeting House Hill, Dorchester",42.303859430364,-71.0711755975533, recently-added ,2021/06/28 07:56:16+00,1,,,,,11
-7907047.79879927,5210826.36055483,N_568579452955537848,South Boston,Q2CK-LL7D-DRFS,SB-PERRY-AP2,"745 East 7th St., South Boston, MA",42.3318967879207,-71.03021889925, BPS Outside Perry-School ,2021/06/28 07:56:17+00,1,BPS,,Outside,Perry School,12
-7907043.46855457,5210864.49008586,N_568579452955537848,South Boston,Q2CK-L6R4-HJGB,SB-PERRY-AP1,"745 E 7th St, South Boston, MA 02127",42.33215,-71.03018, recently-added ,2021/06/28 07:56:17+00,1,,,,,13
-7909583.77933447,5210397.69216827,N_568579452955537848,South Boston,Q2CK-LEG8-FAFN,SB-HIGHSCHOOL-AP2,"95 G St., South Boston, MA",42.32905,-71.053, recently-added ,2021/06/28 07:56:17+00,1,,,,,14
-7906471.83384786,5210981.16606463,N_568579452955537848,South Boston,Q2CK-NLQZ-E2SP,SB-PERRY-AP3,"745 E 7th St, South Boston, MA 02127",42.332924820066,-71.0250449180603, BPS Outside Perry-School ,2021/06/28 07:56:17+00,1,BPS,,Outside,Perry School,15
-7908656.8579611,5210941.67857639,N_568579452955537848,South Boston,Q2CK-D4R6-5UWB,SB-HIGHSCHOOL-AP3,"95 G St., South Boston, MA",42.332662593223,-71.0446733236313, Outside South-Boston-High-School ,2021/06/28 07:56:17+00,1,,,Outside,South Boston High School,16
-7908689.70199669,5210969.59600665,N_568579452955537848,South Boston,Q2CK-LQCX-HR7J,SB-HIGHSCHOOL-AP1,95 G Street,42.3328479862272,-71.0449683666229, recently-added ,2021/06/28 07:56:17+00,1,,,,,17
-7910480.64707594,5218088.01863919,N_568579452955538062,Charlestown,Q2CK-SRA2-LVQC,CHL-BCYF- AP1,"240 Medford St, Charlestown, MA 02129",42.3801019,-71.0610567, BCYF BCYF-Grant Charlestown-Athletic-Building Outside ,2021/06/28 07:56:18+00,1,BCYF,,Outside,Charlestown Athletic Building,18
-7911233.1739711,5208255.22307887,N_568579452955534204,Dorchester,Q2CK-CRWS-U8UK,DOT-BPL-AP1,"500 Columbia Rd., Dorchester, MA",42.3148199257881,-71.0678167641163, BPL Outside Uphams-Corner-Branch ,2021/06/28 07:56:16+00,1,BPL,,Outside,Uphams Corner Branch,19
-7910558.93807382,5206174.96926249,N_568579452955534204,Dorchester,Q2CK-L5SX-NBNQ,DOT-CLEVELAND-AP1,"11 Charles St, Dorchester",42.301,-71.06176, recently-added ,2021/06/28 07:56:16+00,1,,,,,20
-7912128.17394096,5205493.00236287,N_568579452955534204,Dorchester,Q2CK-9ECJ-KEVB,DOT-HOLMES-AP2,"40 School St, Dorchester",42.296468771381,-71.0758566856384, BPS Holmes-Elementary-School Outside ,2021/06/28 07:56:16+00,1,BPS,,Outside,Holmes Elementary School,21
-7912069.35325904,5205510.40410332,N_568579452955534204,Dorchester,Q2CK-H64X-BT93,DOT-HOLMES-AP1,"40 School St., Dorchester, MA",42.2965843987362,-71.0753282904625, BPS Holmes-Elementary-School Outside ,2021/06/28 07:56:16+00,1,BPS,,Outside,Holmes Elementary School,22
-7911567.60397989,5205967.47959864,N_568579452955534204,Dorchester,Q2CK-649C-9H26,DOT-MARSHALL-AP1,"35 Westville St., Dorchester, MA",42.2996214,-71.070821, BPS Marshall-School Outside UP-Academy ,2021/06/28 07:56:16+00,1,BPS,,Outside,Marshall School UP Academy,23
-7911877.49517836,5206929.8178402,N_568579452955534204,Dorchester,Q2CK-ERFW-VHQX,DOT-HOLLAND-AP2,"85 Olney St., Dorchester, MA",42.3060151,-71.0736048, BCYF Holland-Comm-Center Outside ,2021/06/28 07:56:16+00,1,BCYF,,Outside,Holland Comm Center,24
-7911203.9129212,5208271.64509665,N_568579452955534204,Dorchester,Q2CK-CVPA-TEUV,DOT-BPL-AP2,"500 Columbia Rd., Dorchester, MA",42.3149290114949,-71.0675539076328, BPL Outside Uphams-Corner-Branch ,2021/06/28 07:56:16+00,1,BPL,,Outside,Uphams Corner Branch,25
-7911214.60987459,5208244.69630194,N_568579452955534204,Dorchester,Q2CK-U4G7-7P78,DOT-BPL-AP4,"500 Columbia Rd., Dorchester, MA",42.31475,-71.06765, BPL Outside Uphams-Corner-Branch recently-added ,2021/06/28 07:56:16+00,1,BPL,,Outside,Uphams Corner Branch,26
-7910753.23511305,5208798.10501948,N_568579452955534204,Dorchester,Q2CK-G9M2-VTK4,DOT-BFD21-AP2,"641 Columbia Rd., Dorchester, MA",42.318426,-71.0635054, BFD Engine-21 Outside ,2021/06/28 07:56:16+00,1,BFD,,Outside,Engine 21,27
-7910474.33526081,5207242.13933114,N_568579452955534204,Dorchester,Q2CK-NJQU-RB55,DOT-MATHER-AP3,"24 Parrish St, Dorchester",42.30809,-71.061, recently-added ,2021/06/28 07:56:16+00,1,,,,,28
-7912662.55362329,5205512.25542662,N_568579452955534204,Dorchester,Q2CK-HALC-MWBH,DOT-GREENWOOD-AP1,"189 Glenway St., Dorchester, MA",42.2965967,-71.0806571, BPS Greenwood-School Outside ,2021/06/28 07:56:16+00,1,BPS,,Outside,Greenwood School,29
-7910480.64707594,5218088.01863919,N_568579452955538062,Charlestown,Q2CK-V3LS-5V65,CHL-BCYF-AP2,"240 Medford St, Charlestown, MA 02129",42.3801019,-71.0610567, BCYF BCYF-Grant Charlestown-Athletic-Building Outside ,2021/06/28 07:56:18+00,1,BCYF,,Outside,Charlestown Athletic Building,30
-7910480.64707594,5218088.01863919,N_568579452955538062,Charlestown,Q2CK-SNTB-WJWA,CHL-HIGHSCHOOL-AP2,"240 Medford St, Charlestown, MA 02129",42.3801019,-71.0610567, BCYF-Grant BPS Charlestown-High-School Outside ,2021/06/28 07:56:18+00,1,,,Outside,Charlestown High School,31
-7910480.64707594,5218088.01863919,N_568579452955538062,Charlestown,Q2CK-CWUY-RBGW,CHL-HIGHSCHOOL-AP1,"240 Medford St., Charlestown, MA",42.3801019,-71.0610567, BPS Charlestown-High-School Outside ,2021/06/28 07:56:18+00,1,BPS,,Outside,Charlestown High School,32
-7918256.51388294,5198613.28987428,N_568579452955538316,Hyde Park,Q2CK-TSDP-WCWR,HP-BPDE18-AP4,"Corner of Business & River St, Hyde Park MA",42.2507393,-71.1309085, BPD District E-18 Outside ,2021/06/28 07:56:19+00,1,BPD,,Outside,E 18,33
-7917084.04134615,5199005.76863077,N_568579452955538316,Hyde Park,Q2AK-MNV6-RH2P,HP-MAPLE-AP1,"Maple St., Hyde Park, MA - between Oak and River St.",42.253349,-71.120376, Hyde-Park Outside ,2021/06/28 07:56:19+00,1,,,Outside,Hyde Park,34
-7917274.96540482,5199551.37371618,N_568579452955538316,Hyde Park,Q2CK-MJQD-GHYW,HP-BPL-AP1,"35 Harvard Ave., Hyde Park, MA - Roof North",42.2569767,-71.1220911, BPL Hyde-Park-Branch Outside ,2021/06/28 07:56:19+00,1,BPL,,Outside,Hyde Park Branch,35
-7916965.80180141,5199262.35818152,N_568579452955538316,Hyde Park,Q2CK-4SHS-VJAG,HP-BFD48-AP2,"60 Fairmont Ave., Hyde Park, MA",42.2550550766468,-71.1193138360977, BFD Engine-48 Outside ,2021/06/28 07:56:19+00,1,BFD,,Outside,Engine 48,36
-7917188.34770903,5199603.30837738,N_568579452955538316,Hyde Park,Q2AK-GPHE-YSR2,HP-CENTRAL-AP1,"26 Central Ave., Hyde Park, MA",42.257322,-71.121313, BPHC Hyde-Park Outside ,2021/06/28 07:56:19+00,1,,,Outside,Hyde Park,37
-7917500.02001935,5199376.81638014,N_568579452955538316,Hyde Park,Q2CK-BUXF-V896,HP-BPDE18-AP3,"1276 River St., Hyde Park, MA - Hyde Park Ave & River St",42.2558161,-71.1241128, BPD District E-18 Outside ,2021/06/28 07:56:19+00,1,BPD,,Outside,E 18,38
-7917274.96540482,5199551.37371618,N_568579452955538316,Hyde Park,Q2CK-53BW-3TB9,HP-BPL-AP2,"35 Harvard Ave., Hyde Park, MA - Roof South",42.2569767,-71.1220911, BPL Hyde-Park-Branch Outside ,2021/06/28 07:56:19+00,1,BPL,,Outside,Hyde Park Branch,39
-7917024.41862689,5199274.31845914,N_568579452955538316,Hyde Park,Q2AK-YCNF-9V29,HP-BFD48-AP1,"60 Fairmont Ave., Hyde Park, MA",42.2551346,-71.1198404, BFD Engine-48 Outside ,2021/06/28 07:56:19+00,1,BFD,,Outside,Engine 48,40
-7917510.11704581,5199449.7837903,N_568579452955538316,Hyde Park,Q2CK-ZJFC-GBK2,HP-BPDE18-AP1,"1249 Hyde Park Ave., Hyde Park, MA",42.2563012496458,-71.1242035031319, BPD District-E-18 Outside ,2021/06/28 07:56:19+00,1,BPD,,Outside,District E 18,41
-7922407.11675691,5213750.56496065,N_568579452955538703,Alston Brighton,Q2AK-HEMW-CKJN,AB-OAKSQUARE-AP1,"425 Faneuil St., Brighton, MA",42.351313,-71.168194, BFD Engine-51 Outside ,2021/06/28 07:56:21+00,1,BFD,,Outside,Engine 51,42
-13591946.3780132,4497545.18967124,N_568579452955538316,Hyde Park,Q2CK-KB3U-MCEQ,,,37.4180951010362,-122.098531723022, recently-added ,2021/06/28 07:56:19+00,1,,,,,43
-7919837.8634228,5213388.19533096,N_568579452955538703,Alston Brighton,Q2CK-SA2P-MX2R,AB-BRIGHTON-HIGH-AP3,"25 Warren St, Brighton, MA 02135",42.3489072537289,-71.145114004612, BCYF-Grant BPS Brighton-High-School Outside ,2021/06/28 07:56:21+00,1,,,Outside,Brighton High School,44
-7919013.03001042,5213853.92754666,N_568579452955538703,Alston Brighton,Q2AK-PKLP-V45Q,AB-JACKSON-AP1,"40 Armington St., Allston, MA",42.3519992,-71.1377044, BPS Jackson-Mann-School Outside ,2021/06/28 07:56:21+00,1,BPS,,Outside,Jackson Mann School,45
-7919896.98268686,5213405.51309518,N_568579452955538703,Alston Brighton,Q2CK-SVB3-JPWM,AB-BRIGHTON-HIGH-AP2,"25 Warren St, Brighton, MA 02135",42.3490222272324,-71.1456450819969, BCYF-Grant BPS Brighton-High-School Outside ,2021/06/28 07:56:21+00,1,,,Outside,Brighton High School,46
-7919955.50478664,5213423.41869298,N_568579452955538703,Alston Brighton,Q2CK-SRAD-M7DC,AB-BRIGHTON-HIGH-AP1,"25 Warren St, Brighton, MA 02135",42.3491411031713,-71.1461707949638, BCYF-Grant BPS Brighton-High-School Outside ,2021/06/28 07:56:21+00,1,,,Outside,Brighton High School,47
-7918842.22138374,5214131.21357604,N_568579452955538703,Alston Brighton,Q2CK-LVPP-KFQ4,AB-BFDE41-AP1,"460 Cambridge St

Boston, MA 02134",42.35384,-71.13617, recently-added ,2021/06/28 07:56:21+00,1,,,,,48
-7912184.17675392,5207699.96293284,N_579275502070532581,Roxbury,Q2CK-6FWU-5RHA,ROX-MLKSCHOOL-AP1,"77 Lawrence Ave., Roxbury, MA",42.3111314160251,-71.0763597674668, BPS MLK Outside ,2021/06/28 07:56:22+00,1,BPS,,Outside,MLK,49
-7913611.28742313,5208018.69003845,N_579275502070532581,Roxbury,Q2CK-DSFT-7HTL,ROX-TROTTER-AP3,"Humbolt & Waumbeck St., Roxbury, MA",42.3132486987508,-71.0891797207296, BPS Outside Trotter-School ,2021/06/28 07:56:22+00,1,BPS,,Outside,Trotter School,50
-7914737.83836235,5208917.49258645,N_579275502070532581,Roxbury,Q2CK-GUWZ-2YNU,ROX-BRAGDON-AP1,"85 Bragdon St., Roxbury MA",42.319219,-71.0992997, EOC Outside ,2021/06/28 07:56:22+00,1,,,Outside,EOC,51
-7913011.85578151,5208392.07633739,N_579275502070532581,Roxbury,Q2CK-GLBJ-XZRY,ROX-BLA-AP2,"205 Townsend St., Roxbury, MA - east side of roof",42.3157289882279,-71.0837949346751, BPS Boston-Latin-Academy Outside ,2021/06/28 07:56:22+00,1,BPS,,Outside,Boston Latin Academy,52
-7911619.13377218,5209957.46257908,N_579275502070532581,Roxbury,Q2CK-HM2N-KPSM,ROX-MASON-AP2,"150 Norfolk Ave., Roxbury, MA",42.3261263,-71.0712839, recently-added ,2021/06/28 07:56:22+00,1,,,,,53
-7912200.63609448,5207480.86895565,N_579275502070532581,Roxbury,Q2CK-FC84-AQTJ,ROX-FREDERICK-AP2,"270 Columbia Rd., Dorchester, MA",42.309675948163,-71.0765076242387, BPS Frederick-Pilot-School Outside ,2021/06/28 07:56:22+00,1,BPS,,Outside,Frederick Pilot School,54
-7912897.72042516,5207333.97353993,N_579275502070532581,Roxbury,Q2CK-649T-2WQZ,ROX-GROVEHALL-AP7,"476 Blue Hill Ave., Roxbury, MA",42.3087000852543,-71.0827696393244, BPL Grove-Hall Outside ,2021/06/28 07:56:22+00,1,BPL,,Outside,Grove Hall,55
-7913796.68772744,5210851.40437274,N_579275502070532581,Roxbury,Q2CK-SSY2-PBYW,ROX-Madison Park-HS-AP1,"75 Malcolm X Blvd, Boston, MA 02120",42.3320631,-71.0908452, recently-added ,2021/06/28 07:56:22+00,1,,,,,56
-7913202.77106907,5210331.40467075,N_579275502070532581,Roxbury,Q2CK-NU67-LP8V,ROX-BPDB2-AP1,"2400 Washington St., Roxbury, MA - Right Front Side Roof Facing Dudley MBTA",42.3286097730465,-71.085509955883, BPD District-B-2 Outside ,2021/06/28 07:56:22+00,1,BPD,,Outside,District B 2,57
-7912363.26072412,5210594.82876531,N_579275502070532581,Roxbury,Q2CK-ZWAD-LVEM,ROX-ORCHARD-AP1,"906 Albany St., Roxbury, MA",42.3303592006786,-71.0779685061425, BPS Orchard-Garden-School Outside ,2021/06/28 07:56:22+00,1,BPS,,Outside,Orchard Garden School,58
-7912345.79133616,5209022.30626039,N_579275502070532581,Roxbury,Q2CK-6JQN-FZR8,ROX-WINTHROP-AP4,"Waverley & Blue Hill Ave., Roxbury, MA",42.3199151885731,-71.0778115759604, BPS Outside Winthrop-School ,2021/06/28 07:56:22+00,1,BPS,,Outside,Winthrop School,59
-7914568.66613219,5208800.21273145,N_579275502070532581,Roxbury,Q2CK-XD4N-QHUN,BFD-E42-AP1,"1870 Columbus Ave., Roxbury, MA",42.31844,-71.09778, BFD Engine-42 Outside recently-added ,2021/06/28 07:56:22+00,1,BFD,,Outside,Engine 42,60
-7912852.73482669,5210354.64275901,N_579275502070532581,Roxbury,Q2CK-MR56-4QY6,ROX-BFDE14-AP2,"174 Dudley St., Roxbury, MA - Front Roof Facing Dudley St",42.3287641016368,-71.0823655268177, BFD Engine-14 Outside ,2021/06/28 07:56:22+00,1,BFD,,Outside,Engine 14,61
-7912178.21444177,5207676.67352579,N_579275502070532581,Roxbury,Q2CK-5W3E-RVCM,ROX-MLKSCHOOL-AP3,"77 Lawrence Ave., Roxbury, MA",42.3109767032681,-71.0763062071055, BPS MLK Outside ,2021/06/28 07:56:22+00,1,BPS,,Outside,MLK,62
-7911619.13377218,5209957.46257908,N_579275502070532581,Roxbury,Q2CK-F2BB-S6RY,ROX-MASON-AP1,"150 Norfolk Ave., Roxbury, MA",42.3261263,-71.0712839, recently-added ,2021/06/28 07:56:22+00,1,,,,,63
-7914568.66613219,5208800.21273145,N_579275502070532581,Roxbury,Q2CK-CX6Z-DWFB,,"1870 Columbus Ave., Roxbury, MA",42.31844,-71.09778, BFD Engine-42 Outside ,2021/06/28 07:56:22+00,1,BFD,,Outside,Engine 42,64
-7912692.79277099,5207165.74349712,N_579275502070532581,Roxbury,Q2CK-5HAA-H694,ROX-GROVEHALL-AP2,"41 Geneva Ave., Roxbury, MA",42.307582472509,-71.0809287428856, BPL Grove-Hall Outside ,2021/06/28 07:56:22+00,1,BPL,,Outside,Grove Hall,65
-7912861.72961371,5210388.47584794,N_579275502070532581,Roxbury,Q2CK-SDQD-U3MQ,ROX-BFDE14-AP1,"174 Dudley St., Roxbury, MA - Rear Roof Facing Palmer Street",42.3289887929768,-71.0824463283643, BFD Engine-14 Outside ,2021/06/28 07:56:22+00,1,BFD,,Outside,Engine 14,66
-7912130.19870111,5208731.04171381,N_579275502070532581,Roxbury,Q2CK-5S3K-8KFF,ROX-WINTHROP-AP3,"35 Brookford St., Roxbury, MA",42.3179805455354,-71.0758748743683, BPS Outside Winthrop-School ,2021/06/28 07:56:22+00,1,BPS,,Outside,Winthrop School,67
-7913727.08130998,5209434.95844364,N_579275502070532581,Roxbury,Q2CK-DPQP-RN6X,ROX-SHELBURNE-AP2,"2730 Washington St., Roxbury, MA",42.3226560131022,-71.0902199149132, BCYF/BPL Outside Shelbourne-Comm-Center ,2021/06/28 07:56:22+00,1,BCYF,BPL,Outside,Shelbourne Comm Center,68
-7913257.41160102,5210298.98051629,N_579275502070532581,Roxbury,Q2CK-NQHH-62DH,ROX-BPDB2-AP2,"2400 Washington St., Roxbury, MA - Left Side Rear Roof Facing Dudley & Washington",42.3283944374002,-71.0860008001328, BPD District-B-2 Outside ,2021/06/28 07:56:22+00,1,BPD,,Outside,District B 2,69
-7913906.66025239,5211028.44702032,N_579275502070532581,Roxbury,Q2CK-SARQ-LX6F,ROX-Tobin-BCYF-AP1,"1481 Tremont St, Roxbury Crossing, MA 02120",42.3332388,-71.0918331, BCYF BCYF-Grant Outdoor Tobin-Comm-Center ,2021/06/28 07:56:22+00,1,BCYF,,,Tobin Comm Center,70
-7914564.32467205,5208793.43794464,N_579275502070532581,Roxbury,Q2CK-2D9P-VKGR,ROX-BFDE42-AP1,"1870 Columbus Ave., Roxbury, MA",42.318395,-71.097741, BFD Engine-42 Outside ,2021/06/28 07:56:22+00,1,BFD,,Outside,Engine 42,71
-7913685.87697441,5209395.54560093,N_579275502070532581,Roxbury,Q2CK-NU6F-VDER,ROX-SHELBURNE-AP1,"2730 Washington St., Roxbury, MA",42.3223942392346,-71.0898497700691, BCYF/BPL Outside Shelbourne-Comm-Center ,2021/06/28 07:56:22+00,1,BCYF,BPL,Outside,Shelbourne Comm Center,72
-7912229.84363062,5210048.36168032,N_579275502070532581,Roxbury,Q2CK-NEZE-VRYJ,ROX-VINE-AP3,"339 Dudley St, Roxbury",42.32673,-71.07677, recently-added ,2021/06/28 07:56:22+00,1,,,,,73
-7912229.84363062,5210048.36168032,N_579275502070532581,Roxbury,Q2CK-MP2Y-FAUQ,ROX-VINE-AP2,"339 Dudley St, Roxbury",42.32673,-71.07677, recently-added ,2021/06/28 07:56:22+00,1,,,,,74
-7912845.81611863,5210316.93276757,N_579275502070532581,Roxbury,Q2CK-SF4S-8JL2,ROX-BFDE14-AP3,On pole across from BFD Engine 14,42.3285136621772,-71.0823033750057, BFD Engine-14 Outside ,2021/06/28 07:56:22+00,1,BFD,,Outside,Engine 14,75
-7912085.71462733,5208770.45455652,N_579275502070532581,Roxbury,Q2CK-5PKB-8LG8,ROX-WINTHROP-AP1,"35 Brookford St., Roxbury, MA",42.3182423377658,-71.0754752671346, BPS Outside Winthrop-School ,2021/06/28 07:56:22+00,1,BPS,,Outside,Winthrop School,76
-7913304.96080709,5208572.9891232,N_579275502070532581,Roxbury,Q2CK-DFHP-VUSX,ROX-BLA-AP3,"Humbolt & Townsend St., Roxbury, MA",42.3169307006476,-71.0864279419184, BPS Boston-Latin-Academy Outside ,2021/06/28 07:56:22+00,1,BPS,,Outside,Boston Latin Academy,77
-7912052.21277796,5207315.98629857,N_579275502070532581,Roxbury,Q2CK-74V2-BS4Q,ROX-FREDERICK-AP1,"270 Columbia Rd., Dorchester, MA",42.308580590481,-71.0751743149012, BPS Frederick-Pilot-School Outside ,2021/06/28 07:56:22+00,1,BPS,,Outside,Frederick Pilot School,78
-7912096.76216658,5208718.80451134,N_579275502070532581,Roxbury,Q2CK-6B8Q-V8DD,ROX-WINTHROP-AP2,"35 Brookford St., Roxbury, MA",42.3178992620491,-71.0755745088682, BPS Outside Winthrop-School ,2021/06/28 07:56:22+00,1,BPS,,Outside,Winthrop School,79
-7913796.68772744,5210851.40437274,N_579275502070532581,Roxbury,Q2CK-SQTZ-N3W3,ROX-Madison Park-HS-AP2,"75 Malcolm X Blvd, Boston, MA 02120",42.3320631,-71.0908452, recently-added ,2021/06/28 07:56:22+00,1,,,,,80
-7912378.59105096,5208799.38903218,N_579275502070532581,Roxbury,Q2CK-7AFY-YUJ9,ROX-WINTHROP-AP5,"Woodbine and Blue Hill Ave., Roxbury, MA",42.3184345287643,-71.0781062208116, BPS Outside Winthrop-School ,2021/06/28 07:56:22+00,1,BPS,,Outside,Winthrop School,81
-7912727.42829943,5207082.73766172,N_579275502070532581,Roxbury,Q2CK-NFVJ-3N86,ROX-BURKE-AP1,"60 Washington St.
Dorchester, MA 02121",42.3070310275479,-71.0812398791313, BPS Jeremiah-Burke-School Outside ,2021/06/28 07:56:22+00,1,BPS,,Outside,Jeremiah Burke School,82
-7912724.10216974,5207209.02364349,N_579275502070532581,Roxbury,Q2CK-LP79-KBBG,ROX-GROVEHALL-AP1,"41 Geneva Ave, Roxbury",42.30787,-71.08121, recently-added ,2021/06/28 07:56:22+00,1,,,,,83
-7912905.4304883,5207508.75493876,N_579275502070532581,Roxbury,Q2CK-CYFR-SFMF,ROX-GROVEHALL-AP4,"683 Warren St., Roxbury, MA",42.3098612,-71.0828389, BPL Grove-Hall Outside ,2021/06/28 07:56:22+00,1,BPL,,Outside,Grove Hall,84
-7912226.10888345,5210543.81787253,N_579275502070532581,Roxbury,Q2CK-HDFV-VYBC,ROX-ORCHARD-AP2,"906 Albany St., Roxbury, MA",42.3300204356736,-71.0767364501953, BPS Orchard-Garden-School Outside recently-added ,2021/06/28 07:56:22+00,1,BPS,,Outside,Orchard Garden School,85
-7912229.84363062,5210048.36168032,N_579275502070532581,Roxbury,Q2CK-NJTU-PZA7,ROX-VINE-AP4,"339 Dudley St, Roxbury",42.32673,-71.07677, recently-added ,2021/06/28 07:56:22+00,1,,,,,86
-7912173.95964626,5210648.57355082,N_579275502070532581,Roxbury,Q2CK-VQ39-UL8G,ROX-ORCHARD-AP3,"906 Albany St., Roxbury, MA",42.3307161195807,-71.0762679856271, BPS Orchard-Garden-School Outside ,2021/06/28 07:56:22+00,1,BPS,,Outside,Orchard Garden School,87
-7912229.84363062,5210048.36168032,N_579275502070532581,Roxbury,Q2CK-ZXL4-AYZP,ROX-VINE-AP1,"339 Dudley St, Roxbury",42.32673,-71.07677, recently-added ,2021/06/28 07:56:22+00,1,,,,,88
-7912644.42246403,5207118.56751873,N_579275502070532581,Roxbury,Q2CK-NNVA-2639,ROX-BURKE-AP2,"60 Washington St.
Dorchester, MA 02121",42.3072690619366,-71.0804942250252, BPS Jeremiah-Burke-School Outside ,2021/06/28 07:56:22+00,1,BPS,,Outside,Jeremiah Burke School,89
-7912502.74523777,5210300.21216763,N_579275502070532581,Roxbury,Q2CK-NF7G-GS7K,ROX-BFDE14-AP4,"Dudley St and Mt Pleasant Ave., Roxbury, MA",42.3284026170699,-71.0792215168476, BFD Engine-14 Outside ,2021/06/28 07:56:22+00,1,BFD,,Outside,Engine 14,90
-7913532.85362677,5208219.39788719,N_579275502070532581,Roxbury,Q2CK-BF8L-TU5P,ROX-TROTTER-AP2,"Humbolt & Waumbeck St., Roxbury, MA",42.3145819509434,-71.088475137949, BPS Outside Trotter-School ,2021/06/28 07:56:22+00,1,BPS,,Outside,Trotter School,91
-7914568.66613219,5208800.21273145,N_579275502070532581,Roxbury,Q2CK-BX25-DLJ2,BFD-E42-AP2,"1870 Columbus Ave., Roxbury, MA",42.31844,-71.09778, BFD Engine-42 Outside recently-added ,2021/06/28 07:56:22+00,1,BFD,,Outside,Engine 42,92
-7912206.86899669,5207707.12890424,N_579275502070532581,Roxbury,Q2CK-5YEE-273N,ROX-MLKSCHOOL-AP2,"77 Lawrence Ave., Roxbury, MA",42.3111790198738,-71.0765636153519, BPS MLK Outside ,2021/06/28 07:56:23+00,1,BPS,,Outside,MLK,93
-7913484.52064257,5208319.26894827,N_579275502070532581,Roxbury,Q2CK-H5VS-5UKS,ROX-TROTTER-AP1,"135 Humboldt Ave., Roxbury, MA",42.3152453589757,-71.0880409553647, BPS Outside Trotter-School ,2021/06/28 07:56:23+00,1,BPS,,Outside,Trotter School,94
-7913182.0476023,5208488.81695131,N_579275502070532581,Roxbury,Q2CK-FSAF-7UZR,ROX-BLA-AP1,"205 Townsend St., Roxbury, MA - west side of roof",42.316371590204,-71.0853237938136, BPS Boston-Latin-Academy Outside ,2021/06/28 07:56:23+00,1,BPS,,Outside,Boston Latin Academy,95
-7912161.81108537,5207153.24503528,N_579275502070532581,Roxbury,Q2CK-64RA-6G66,ROX-FREDERICK-AP3,"Devon & Columbia Rd, Dorchester, MA",42.3074994399351,-71.0761588532478, BPS Frederick-Pilot-School Outside ,2021/06/28 07:56:23+00,1,BPS,,Outside,Frederick Pilot School,96
-7912311.50337599,5210272.70528782,N_579275502070532581,Roxbury,Q2CK-5FW6-RS9C,ROX-VINE-AP5,"Dudley and Adams St., Roxbury, MA",42.3282199375272,-71.0775035619736, BCYF/BPL Outside Vine-St-Comm-Center recently-added ,2021/06/28 07:56:23+00,1,BCYF,BPL,Outside,Vine St Comm Center,97
-7913188.73770841,5210308.41384583,N_579275502070532581,Roxbury,Q2CK-NPJ9-EDSZ,ROX-BPDB2-AP3,"2400 Washington St., Roxbury, MA - Left Side Facing Bartlett St",42.3284570862067,-71.0853838920593, BPD District-B-2 Outside ,2021/06/28 07:56:23+00,1,BPD,,Outside,District B 2,98
-7911793.47122671,5209565.04203318,N_579275502070532581,Roxbury,Q2CK-NM86-CUTL,ROX-EMERSON-AP2,"6 SHIRLEY ST
 ROXBURY, MA 02119",42.32352,-71.07285, recently-added ,2021/06/28 07:56:23+00,1,,,,,99
-7913796.68772744,5210851.40437274,N_579275502070532581,Roxbury,Q2CK-SU8N-5VU8,ROX-Madison Park-HS-AP3,"75 Malcolm X Blvd, Boston, MA 02120",42.3320631,-71.0908452, recently-added ,2021/06/28 07:56:23+00,1,,,,,100
-7917888.94313813,5204032.5088106,N_601230550253961252,Roslindale,Q2CK-5TD4-6S66,ROS-COMMUNITY-AP1,"6 Cummings Highway, Roslindale, MA",42.2867636402338,-71.1276065558195, BCYF/BPL Outside Roslindale-Comm-Center ,2021/06/28 07:56:23+00,1,BCYF,BPL,Outside,Roslindale Comm Center,101
-7918005.65143279,5203833.98667645,N_601230550253961252,Roslindale,Q2CK-7FHC-97HP,ROS-BPL-AP2,"4246 Washington St., Roslindale MA",42.2854443246119,-71.1286549642682, BPL Outside Roslindale-branch ,2021/06/28 07:56:23+00,1,BPL,,Outside,Roslindale branch,102
-7917903.79807636,5203986.81861172,N_601230550253961252,Roslindale,Q2CK-NLJC-KT9P,ROS-COMMUNITY-AP4,"6 cummins highway, Roslindale, ma",42.28646,-71.12774, BCYF Flaherty-Pool Outside ,2021/06/28 07:56:23+00,1,BCYF,,Outside,Flaherty Pool,103
-7917920.59284516,5203993.24525897,N_601230550253961252,Roslindale,Q2CK-6PU6-G499,ROS-COMMUNITY-AP2,"6 Cummings Highway, Roslindale, MA",42.2865027092191,-71.1278908699751, BCYF/BPL Outside Roslindale-Comm-Center ,2021/06/28 07:56:23+00,1,BCYF,BPL,Outside,Roslindale Comm Center,104
-7918001.32508224,5203858.76574323,N_601230550253961252,Roslindale,Q2CK-6V2L-TCDF,ROS-BPL-AP1,"4246 Washington St., Roslindale MA",42.285609,-71.1286161, BPL Outside Roslindale-branch ,2021/06/28 07:56:23+00,1,BPL,,Outside,Roslindale branch,105
-7910182.31412325,5215096.68234599,N_601230550253961310,Downtown Boston,Q2CK-7DJ6-6N77,DT-CITYHALL-AP4,"1 City Hall Square, Boston, MA - left side facing plaza",42.3602489715186,-71.0583767294884, City-Hall Outside ,2021/06/28 07:56:24+00,1,,,Outside,City Hall,106
-7909696.16174699,5215062.18211258,N_601230550253961310,Downtown Boston,Q2CK-H5CG-RPPR,DT-QUINCYMARKET-AP3,"Faneuil Hall Square, Boston, MA - S Market furthest from city hall",42.3600199634472,-71.0540095483884, Faneuil-Hall Outside ,2021/06/28 07:56:24+00,1,,,Outside,Faneuil Hall,107
-7910135.1977738,5215108.39236436,N_601230550253961310,Downtown Boston,Q2CK-SWQM-QW53,DT-CITYHALL-4TH-FLOOR-PATIO,4th Floor City Hall outside Daycare,42.3603267009109,-71.05795347612, City-Hall EMPLOYEE OUTSIDE ,2021/06/28 07:56:24+00,1,,,Outside,City Hall,108
-7909711.65536095,5215132.93208414,N_601230550253961310,Downtown Boston,Q2CK-GZLP-9M9B,DT-QUINCYMARKET-AP2,"Faneuil Hall Square, Boston, MA - N Market furthest from city hall",42.3604895916762,-71.0541487298906, Faneuil-Hall Outside ,2021/06/28 07:56:24+00,1,,,Outside,Faneuil Hall,109
-7910132.52876433,5215100.63369392,N_601230550253961310,Downtown Boston,Q2CK-EZ6K-LZEK,DT-City Hall Plaza Cambridge St - JFK,"1 cityhall square, boston, ma",42.3602752,-71.0579295, City-Hall Outside ,2021/06/28 07:56:24+00,1,,,Outside,City Hall,110
-7910185.89710895,5215153.41295291,N_601230550253961310,Downtown Boston,Q2CK-F2XU-778H,DT-CITYHALL-AP1,"1 City Hall Square, Boston, MA - right side facing Faneuil Hall",42.3606255401094,-71.0584089159966, City-Hall Outside ,2021/06/28 07:56:24+00,1,,,Outside,City Hall,111
-7909814.34895631,5215052.07230787,N_601230550253961310,Downtown Boston,Q2CK-HAAS-948H,DT-QUINCYMARKET-AP4,"Faneuil Hall Square, Boston, MA - S Market closest to city hall",42.3599528557176,-71.0550712421536, Faneuil-Hall Outside ,2021/06/28 07:56:24+00,1,,,Outside,Faneuil Hall,112
-7910315.9594826,5215021.18397256,N_601230550253961310,Downtown Boston,Q2CK-FGCW-RECE,DT-CITY-HALL Guard Shack (Cambridge St),"1 city hall plaza, boston, ma",42.3597478220298,-71.059577286178, City-Hall OUTSIDE ,2021/06/28 07:56:24+00,1,,,Outside,City Hall,113
-7909902.74326631,5215104.78605192,N_601230550253961310,Downtown Boston,Q2CK-F7VQ-37EJ,DT-QUINCYMARKET-AP1,"Faneuil Hall Square, Boston, MA - N Market closest to city hall",42.3603027627457,-71.0558653017506, Faneuil-Hall Outside ,2021/06/28 07:56:24+00,1,,,Outside,Faneuil Hall,114
-7910088.55933074,5215108.62563165,N_601230550253961310,Downtown Boston,Q2CK-FBCF-6HTM,DT-CITYHALL-AP3,"1 City Hall Square, Boston, MA - right side facing plaza",42.3603282493042,-71.0575345158577, City-Hall Outside ,2021/06/28 07:56:24+00,1,,,Outside,City Hall,115
-7910139.597552,5215120.3388742,N_601230550253961310,Downtown Boston,Q2CK-CXHE-LLKU,DT-CITY-HALL-2ND FLOOR STAGE,"Cityhall plaza, boston, ma",42.360406,-71.057993, City-Hall EMPLOYEE OUTSIDE ,2021/06/28 07:56:24+00,1,,,Outside,City Hall,116
-7910077.30279857,5215063.41842015,N_601230550253961310,Downtown Boston,Q2CK-H68R-KNAK,DT-CITYHALL_PICNIC-AP1,"1 city hall plaza, boston, ma",42.3600281699108,-71.0574333967088, City-Hall EMPLOYEE OUTSIDE ,2021/06/28 07:56:24+00,1,,,Outside,City Hall,117
-7910093.48593607,5215163.21951013,N_601230550253961310,Downtown Boston,Q2CK-FBMC-D3V9,DT-CITYHALL-AP2,"1 City Hall Square, Boston, MA - left side facing Faneuil Hall",42.3606906342209,-71.0575787723064, City-Hall Outside ,2021/06/28 07:56:24+00,1,,,Outside,City Hall,118
-7907981.89186195,5216740.58250385,N_601230550253961436,East Boston,Q2CK-N6MC-XFPQ,EB-BPDA7-AP3,"69 Paris Street, East Boston",42.37116,-71.03861, recently-added ,2021/06/28 07:56:26+00,1,,,,,119
-7907989.68422631,5216278.01488644,N_601230550253961436,East Boston,Q2EK-N2DB-5PSX,EB-ENGINE9-AP1,"239 Sumner St, Boston, MA 02128",42.36809,-71.03868, BFD E-Boston-Main-Street Engine-9 Outside ,2021/06/28 07:56:26+00,1,BFD,,Outside,E Boston Main Street Engine 9,120
-7907981.89186195,5216740.58250385,N_601230550253961436,East Boston,Q2CK-ZYHQ-FVKG,EB-BPDA7-AP1,"69 Paris Street, East Boston",42.37116,-71.03861, BPD District-A-7 E-Boston-Main-Street Outside ,2021/06/28 07:56:26+00,1,BPD,,Outside,District A 7 E Boston Main Street,121
-7907986.54106026,5216933.6199454,N_601230550253961436,East Boston,Q2CK-NU9A-QWKC,EB-10GOVE-AP2,"10 Gove St, Boston, MA 02128, USA",42.3724411195539,-71.038651764459, E-Boston-Main-Street June2016 Outside Private-residence ,2021/06/28 07:56:26+00,1,,,Outside,E Boston Main Street Private residence,122
-7907968.77541547,5216282.60862486,N_601230550253961436,East Boston,Q2CK-DR2X-L8TF,EB-ENGINE9-AP2,"239 Sumner St., East Boston, MA - Left front on Station",42.368120488771,-71.0384921729565, BFD E-Boston-Main-Street Engine-9 Outside ,2021/06/28 07:56:26+00,1,BFD,,Outside,E Boston Main Street Engine 9,123
-7907988.48183681,5216757.9513945,N_601230550253961436,East Boston,Q2CK-D66G-X9MY,EB-BPDA7-AP4,"69 Paris St., East Boston, MA - Right back pointing towards Maverick St",42.3712752721036,-71.0386691987514, BPD District-A-7 E-Boston-Main-Street Outside ,2021/06/28 07:56:26+00,1,BPD,,Outside,District A 7 E Boston Main Street,124
-7907914.88133888,5216544.20856914,N_601230550253961436,East Boston,Q2CK-NQEV-RYEW,EB-154MAVERICK-AP1,"154 Maverick St, East Boston MA",42.3698567105375,-71.0380080342293, E-Boston-Main-Street June2016 Outside Private-residence recently-added ,2021/06/28 07:56:26+00,1,,,Outside,E Boston Main Street Private residence,125
-7907925.33171384,5216956.50385342,N_601230550253961436,East Boston,Q2CK-NPNU-ZQAD,EB-10GOVE-AP1,"10 Gove St, Boston, MA 02128, USA",42.3725929900271,-71.0381019115448, E-Boston-Main-Street June2016 Outside Private-residence ,2021/06/28 07:56:26+00,1,,,Outside,E Boston Main Street Private residence,126
-7907981.89186195,5216740.58250385,N_601230550253961436,East Boston,Q2CK-L58U-SANP,EB-BPDA7-AP2,"69 Paris Street, East Boston",42.37116,-71.03861, recently-added ,2021/06/28 07:56:26+00,1,,,,,127
-7914626.5522674,5210878.04262713,N_601230550253961587,BCYF Tremont,Q2QD-R397-ZFBT,BCYF-1st floor AP1 ,"1483 Tremont St, Boston, MA",42.33224,-71.0983, BCYF Inside employee ,2021/06/28 07:56:28+00,1,BCYF,,Inside,employee,128
-7914626.5522674,5210878.04262713,N_601230550253961587,BCYF Tremont,Q2CK-UTKT-YZ7P,BCYF-3rd FL Easter Island,"1483 Tremont St, Boston, MA",42.33224,-71.0983, BCYF Inside employee ,2021/06/28 07:56:28+00,1,BCYF,,Inside,employee,129
-7914626.5522674,5210878.04262713,N_601230550253961587,BCYF Tremont,Q2FD-55JF-J4WS,BCYF-4th FL Library,"1483 Tremont St, Boston, MA",42.33224,-71.0983, BCYF Inside employee ,2021/06/28 07:56:28+00,1,BCYF,,Inside,employee,130
-7914626.5522674,5210878.04262713,N_601230550253961587,BCYF Tremont,Q2FD-5N3B-TTKT,BCYF-4th FL Dep. Comm,"1483 Tremont St, Boston, MA",42.33224,-71.0983, BCYF employee Inside ,2021/06/28 07:56:28+00,1,BCYF,,Inside,employee,131
-7914626.5522674,5210878.04262713,N_601230550253961587,BCYF Tremont,Q2FD-6DML-BCZE,BCYF-CC Lobby,"1483 Tremont St Boston, MA",42.33224,-71.0983, BCYF Inside employee ,2021/06/28 07:56:28+00,1,BCYF,,Inside,employee,132
-7914626.5522674,5210878.04262713,N_601230550253961587,BCYF Tremont,Q2FD-4SE4-JW2S,BCYF-3rd FL GED,"1483 Tremont St, Boston, MA",42.33224,-71.0983, BCYF Inside employee ,2021/06/28 07:56:28+00,1,BCYF,,Inside,employee,133
-7914626.5522674,5210878.04262713,N_601230550253961587,BCYF Tremont,Q2QD-U3LC-V2UB,BCYF-1st floor AP2 ,"1483 Tremont St, Boston, MA",42.33224,-71.0983, BCYF Inside employee ,2021/06/28 07:56:28+00,1,BCYF,,Inside,employee,134
-7907590.32255081,5210386.76366597,N_601230550253961607,Maintenance,Q2CK-5G43-8LN7,SB-CURLEY-AP3,"1663 Columbia Rd., South Boston, MA - rear of building facing family beach",42.3289774221023,-71.0350924730301, Curley-Comm-Center Outside recently-added ,2021/06/28 07:56:29+00,1,,,Outside,Curley Comm Center,135
-7909400.87567491,5210414.65281198,N_601230550253961607,Maintenance,Q2CK-LPZ2-AE76,SB-OLLIE-AP1,"1187 Columbia Rd., South Boston, MA - roof ridge end of building",42.329162638129,-71.051356948471, recently-added ,2021/06/28 07:56:29+00,1,,,,,136
-7907582.55941512,5210433.26783454,N_601230550253961607,Maintenance,Q2AK-HSPK-RS2U,SB-CURLEY-AP2,"1163 Columbia Rd., South Boston, MA - side of building at M Street Beach",42.3292862629991,-71.0350227355957, Curley-Comm-Center Outside recently-added ,2021/06/28 07:56:29+00,1,,,Outside,Curley Comm Center,137
-7908099.40510248,5216403.87496252,N_601230550253961607,Maintenance,Q2CK-NJW2-K668,EB-MAVERICKSQUARE,"201 Sumner St, East Boston. On traffic signal at South side of Maverick Square T station",42.3689253315109,-71.0396656394005, recently-added ,2021/06/28 07:56:29+00,1,,,,,138
-7910622.72278231,5206787.80382052,N_601230550253961607,Maintenance,Q2CK-FBVU-CKYV,DOT-LINDEN-AP1,"Linden and Adams St., Dorchester, MA",42.3050716108001,-71.0623329877853, Linden Outside recently-added ,2021/06/28 07:56:29+00,1,,,Outside,Linden,139
-7914618.97141008,5210904.90683292,N_601230550253961607,Maintenance,Q2HD-6ZYB-UV3A,BCYF-Lobby Area 1st Fl,"1483 Tremont St., Boston, MA - Lobby area",42.3324184,-71.0982319, BCYF DYEE Inside recently-added ,2021/06/28 07:56:29+00,1,BCYF,,Inside,DYEE,140
-7917169.71282627,5199533.21996452,N_601230550253961607,Maintenance,Q2AK-ZNJ8-36SL,HP-COMMUNITY-AP2,"Winthrop St and  Central Ave., Hyde Park, MA",42.256856,-71.1211456, Hyde-Park Outside recently-added ,2021/06/28 07:56:29+00,1,,,Outside,Hyde Park,141
-7909403.44175938,5215300.21833366,N_601230550253961607,Maintenance,Q2CK-NSRS-2VLF,CP-GREENWAY-AP1,"110 Atlantic Ave , Boston, ma",42.3616,-71.05138, Columbus-Park Outside Parks Rose-Kennedy-Greenway recently-added ,2021/06/28 07:56:29+00,1,,,Outside,Columbus Park Rose Kennedy Greenway,142
-7910747.06801326,5206579.84756598,N_601230550253961607,Maintenance,Q2CK-GUKH-WDPW,DOT-MTIDA-AP1,"97 mount ida road, Dorchester, ma",42.30369,-71.06345, Mt-Ida-Rd Outside Parks recently-added ,2021/06/28 07:56:29+00,1,,,Outside,Mt Ida Rd,143
-7910558.93807382,5206174.96926249,N_601230550253961607,Maintenance,Q2CK-MP74-GD6W,DOT-CLEVELAND-AP2,"11 Charles St, Dorchester",42.301,-71.06176, recently-added ,2021/06/28 07:56:29+00,1,,,,,144
-7910746.33578899,5214360.42543792,N_601230550253961607,Maintenance,Q2EK-F532-NEAF,PARKS-COMMONEAST-AP3,"139 Tremont St, Boston, MA 02111",42.3553616125736,-71.0634434223175, recently-added ,2021/06/28 07:56:29+00,1,,,,,145
-7911219.369993,5214472.49452816,N_601230550253961607,Maintenance,Q2CK-LBL7-285B,PARKS-COMMONWEST-AP2,"139 Tremont St, Boston, MA 02111",42.3561055647485,-71.0676927608712, recently-added ,2021/06/28 07:56:29+00,1,,,,,146
-7911793.47122671,5209565.04203318,N_601230550253961607,Maintenance,Q2CK-MWWP-8A2C,ROX-EMERSON-AP1,"6 SHIRLEY ST
 ROXBURY, MA 02119",42.32352,-71.07285, recently-added ,2021/06/28 07:56:29+00,1,,,,,147
-7909403.44175938,5215300.21833366,N_601230550253961607,Maintenance,Q2CK-NDET-JQ35,CP-COLUMBUS-AP1,"110 Atlantic Ave, Boston, MA",42.3616,-71.05138, Columbus-Park Outside Parks recently-added ,2021/06/28 07:56:29+00,1,,,Outside,Columbus Park,148
-7907611.69916602,5210412.88027268,N_601230550253961607,Maintenance,Q2AK-XW3B-PDTE,SB-CURLEY-AP1,"1163 Columbia Rd., South Boston, MA - roof above L Street entrance",42.3291508664443,-71.0352845024318, Curley-Comm-Center Outside recently-added ,2021/06/28 07:56:29+00,1,,,Outside,Curley Comm Center,149
-7908569.65877334,5210641.62885531,N_601230550253961607,Maintenance,Q2CK-NAN3-468N,SB-GSTREET-AP4,"1406 Columbia Rd., South Boston, MA - streetlight at G Street and Harborwalk",42.33067,-71.04389, recently-added ,2021/06/28 07:56:29+00,1,,,,,150
-7910809.94563504,5214376.44079008,N_601230550253961607,Maintenance,Q2CK-L9VP-E5VH,PARKS-COMMONWEST-AP1,"139 Tremont St, Boston, MA 02111",42.3554679283873,-71.0640148392868, recently-added ,2021/06/28 07:56:29+00,1,,,,,151
-7913042.6985524,5210582.0745968,N_601230550253961809,Bolling,Q2FD-3Q7F-9C4J,BOL-FOYER-AP1,"2300 Washington St., Roxbury 02119",42.3302745,-71.084072, Bolling Inside ,2021/06/28 07:56:30+00,1,,,Inside,Bolling,152
-7913042.6985524,5210582.0745968,N_601230550253961809,Bolling,Q2FD-DQJY-R4K6,BOL-FOYER-AP2,"2300 Washington St., Roxbury 02119",42.3302745,-71.084072, Bolling Inside ,2021/06/28 07:56:30+00,1,,,Inside,Bolling,153
-7913042.6985524,5210582.0745968,N_601230550253961809,Bolling,Q2FD-3YYZ-LW7E,BOL-PUBLOBBY-AP1,"2300 Washington St., Roxbury 02119",42.3302745,-71.084072, Bolling Inside ,2021/06/28 07:56:30+00,1,,,Inside,Bolling,154
-7913042.6985524,5210582.0745968,N_601230550253961809,Bolling,Q2FD-6RML-C4S6,BOL-SCHLOBBY-AP1,"2300 Washington St., Roxbury 02119",42.3302745,-71.084072, Bolling Inside ,2021/06/28 07:56:30+00,1,,,Inside,Bolling,155
-7913042.6985524,5210582.0745968,N_601230550253961809,Bolling,Q2FD-MTWE-FN62,BOL-WELCOMELOBBY-AP1,"2300 Washington St., Roxbury 02119",42.3302745,-71.084072, Bolling Inside ,2021/06/28 07:56:30+00,1,,,Inside,Bolling,156
-7913042.6985524,5210582.0745968,N_601230550253961809,Bolling,Q2FD-VT33-84WZ,BOL-ROOFDECK-AP1,"2300 Washington St., Roxbury 02119",42.3302745,-71.084072, Bolling Inside ,2021/06/28 07:56:30+00,1,,,Inside,Bolling,157
-7916479.62103894,5207357.65377669,N_601230550253962329,BCYF Indoor,Q2JD-VG9W-FPTX,BCYF-Curtis-Hall-AP1,"20 South Street, Jamaica Plain - room 204 Senior Center
Asset tag #701689",42.3088574,-71.1149464, BCYF BCYF-Grant Curtis Inside Jamaica-Plain ,2021/06/28 07:56:31+00,1,BCYF,,Inside,Jamaica Plain,158
-7913746.51603294,5209392.82960815,N_601230550253962329,BCYF Indoor,Q2JD-UQKQ-B9LG,BCYF-Shelbourne-AP1,"2730 Washington St, Roxbury, MA - large meeting room",42.3223762,-71.0903945, BCYF BCYF-Grant Inside Roxbury Shelburne ,2021/06/28 07:56:31+00,1,BCYF,,Inside,Roxbury Shelburne,159
-7912229.84363062,5210048.36168032,N_601230550253962329,BCYF Indoor,Q2LD-HLM8-574W,BCYF-Vine Street-Senior Lounge 222 AP1,"339 Dudley Street. Boston, MA",42.32673,-71.07677,,2021/06/28 07:56:31+00,1,,,,,160
-7912229.84363062,5210048.36168032,N_601230550253962329,BCYF Indoor,Q2LD-YT4H-L4ES,BCYF-Vine Street-room 106 Teen,"339 Dudley Street. Boston, MA",42.32673,-71.07677,,2021/06/28 07:56:31+00,1,,,,,161
-7912229.84363062,5210048.36168032,N_601230550253962329,BCYF Indoor,Q2LD-DSEF-JAHC,BCYF-Vine Street- Classroom B,"339 Dudley Street. Boston, MA",42.32673,-71.07677,,2021/06/28 07:56:31+00,1,,,,,162
-7916479.62103894,5207357.65377669,N_601230550253962329,BCYF Indoor,Q2JD-XS34-CU2K,BCYF-Curtis-Hall-AP2,"20 South Street, Jamaica Plain - Room 217 teen room",42.3088574,-71.1149464, BCYF BCYF-Grant Curtis Inside Jamaica-Plain ,2021/06/28 07:56:32+00,1,BCYF,,Inside,Jamaica Plain,163
-7912229.84363062,5210048.36168032,N_601230550253962329,BCYF Indoor,Q2LD-TEW9-ABKD,BCYF-Vine Street-Art Room 122,"339 Dudley Street. Boston, MA",42.32673,-71.07677,,2021/06/28 07:56:32+00,1,,,,,164
-7917903.40845814,5203986.36718846,N_601230550253962329,BCYF Indoor,Q2JD-XNJC-E9DV,BCYF-Roslindale-AP1,"6 Cummins Highway, Roslindale, MA - Meeting room",42.286457,-71.1277365, BCYF BCYF-Grant Inside Roslindale ,2021/06/28 07:56:32+00,1,BCYF,,Inside,Roslindale,165
-7910480.64707594,5218088.01863919,N_601230550253962329,BCYF Indoor,Q2JD-UTKP-YWHB,BCYF-Charlestown-AP1,"240 Medford St., Charlestown, MA - meeting room",42.3801019,-71.0610567, BCYF BCYF-Grant Charlestown Inside ,2021/06/28 07:56:32+00,1,BCYF,,Inside,Charlestown,166
-7913796.68772744,5210851.40437274,N_601230550253962329,BCYF Indoor,Q2JD-XRRZ-NCRG,BCYF-Madison-AP1,"75 Malcolm X Blvd. Roxbury, MA - Admin office",42.3320631,-71.0908452, BCYF BCYF-Grant Inside Madison-Park Roxbury ,2021/06/28 07:56:32+00,1,BCYF,,Inside,Madison Park,167
-7912229.84363062,5210048.36168032,N_601230550253962329,BCYF Indoor,Q2LD-D7L7-Y73T,BCYF-Vine Street-Fitness room 219,"339 Dudley Street. Boston, MA",42.32673,-71.07677,,2021/06/28 07:56:32+00,1,,,,,168
-7917903.40845814,5203986.36718846,N_601230550253962329,BCYF Indoor,Q2JD-XLEC-WCDN,BCYF-Roslindale-AP3,"6 Cummins Highway, Roslindale, MA - room 205 teen room",42.286457,-71.1277365, BCYF BCYF-Grant Inside Roslindale ,2021/06/28 07:56:32+00,1,BCYF,,Inside,Roslindale,169
-7912229.84363062,5210048.36168032,N_601230550253962329,BCYF Indoor,Q2LD-DUHQ-HF7B,BCYF-Vine Street-Computer room 205,"339 Dudley Street. Boston, MA",42.32673,-71.07677,,2021/06/28 07:56:32+00,1,,,,,170
-7910480.64707594,5218088.01863919,N_601230550253962329,BCYF Indoor,Q2JD-VTCK-Y2SH,BCYF-Charlestown-AP2,"240 Medford St., Charlestown, MA - Admin office",42.3801019,-71.0610567, BCYF BCYF-Grant Charlestown Inside ,2021/06/28 07:56:32+00,1,BCYF,,Inside,Charlestown,171
-7909171.54099616,5205173.36864551,N_601230550253962329,BCYF Indoor,Q2JD-XRN5-6G22,BCYF-Murphy-AP2,"One Worrell Street, Dorchester, MA - Admin office B 123",42.2943449,-71.0492968, BCYF BCYF-Grant Dorchester Inside Murphy ,2021/06/28 07:56:32+00,1,BCYF,,Inside,Dorchester Murphy,172
-7909171.54099616,5205173.36864551,N_601230550253962329,BCYF Indoor,Q2JD-WG4P-EVHX,BCYF-Murphy-AP1,"One Worrell St., Dorchester, MA -  inside lobby reception desk",42.2943449,-71.0492968, BCYF BCYF-Grant Dorchester Inside Murphy ,2021/06/28 07:56:32+00,1,BCYF,,Inside,Dorchester Murphy,173
-7917903.40845814,5203986.36718846,N_601230550253962329,BCYF Indoor,Q2JD-URL9-7FSE,BCYF-Roslindale-AP2,"6 Cummins Highway, Roslindale, MA - Room 108 after school room",42.286457,-71.1277365, BCYF BCYF-Grant Inside Roslindale ,2021/06/28 07:56:32+00,1,BCYF,,Inside,Roslindale,174
-7912229.84363062,5210048.36168032,N_601230550253962329,BCYF Indoor,Q2LD-54N8-9YC9,BCYF-Vine Street-Senior Room 222 AP2,"339 Dudley Street. Boston, MA",42.32673,-71.07677,,2021/06/28 07:56:32+00,1,,,,,175
-7913746.51603294,5209392.82960815,N_601230550253962329,BCYF Indoor,Q2JD-VSFG-ZKNW,BCYF-Shelbourne-AP2,"2730 Washington St, Roxbury, MA - Game room (Teen room)",42.3223762,-71.0903945, BCYF BCYF-Grant Inside Roxbury Shelburne ,2021/06/28 07:56:32+00,1,BCYF,,Inside,Roxbury Shelburne,176
-7912229.84363062,5210048.36168032,N_601230550253962329,BCYF Indoor,Q2LD-GHSY-3U4C,BCYF-Vine Street-Dance Studio 209 left,"339 Dudley Street. Boston, MA",42.32673,-71.07677,,2021/06/28 07:56:32+00,1,,,,,177
-7912229.84363062,5210048.36168032,N_601230550253962329,BCYF Indoor,Q2LD-6MR4-Y7UM,BCYF-Vine Street-Room 107,"339 Dudley Street. Boston, MA",42.32673,-71.07677,,2021/06/28 07:56:32+00,1,,,,,178
-7916479.62103894,5207357.65377669,N_601230550253962329,BCYF Indoor,Q2JD-XRZM-K84X,BCYF-Curtis-Hall-AP3,"20 South Street, Jamaica Plain, MA - Room 108 supervisor",42.3088574,-71.1149464, BCYF BCYF-Grant Curtis Inside Jamaica-Plain ,2021/06/28 07:56:32+00,1,BCYF,,Inside,Jamaica Plain,179
-7912229.84363062,5210048.36168032,N_601230550253962329,BCYF Indoor,Q2LD-VVDJ-5Z5M,BCYF-Vine Street-Room 123,"339 Dudley Street. Boston, MA",42.32673,-71.07677,,2021/06/28 07:56:32+00,1,,,,,180
-13591946.3780132,4497545.18967124,N_601230550253962397,Main Streets Staging,Q2CK-SSND-ZPXK,,,37.4180951010362,-122.098531723022, recently-added ,2021/06/28 07:56:33+00,1,,,,,181
-13591946.3780132,4497545.18967124,N_601230550253962397,Main Streets Staging,Q2CK-U6Y3-HW4U,,,37.4180951010362,-122.098531723022, recently-added ,2021/06/28 07:56:33+00,1,,,,,182
0,0,N_601230550253962397,Main Streets Staging,Q2CK-FTCP-Z5SN,,,0,0, recently-added ,2021/06/28 07:56:33+00,1,,,,,183
-13591946.3780132,4497545.18967124,N_601230550253962397,Main Streets Staging,Q2CK-SVN3-R4RV,00:18:0a:23:ae:84,,37.4180951010362,-122.098531723022, recently-added ,2021/06/28 07:56:33+00,1,,,,,184
0,0,N_601230550253962397,Main Streets Staging,Q2CK-GQMB-9FSM,,,0,0, recently-added ,2021/06/28 07:56:33+00,1,,,,,185
-7910132.58442408,5215101.35681907,N_601230550253962397,Main Streets Staging,Q2CK-J8SH-SJKJ,,"1 city hall plaza, boston",42.36028,-71.05793, recently-added ,2021/06/28 07:56:33+00,1,,,,,186
0,0,N_601230550253962397,Main Streets Staging,Q2CK-GTLL-GW3D,,,0,0, recently-added ,2021/06/28 07:56:33+00,1,,,,,187
0,0,N_601230550253962397,Main Streets Staging,Q2CK-CHPD-ZY4Z,,,0,0, recently-added ,2021/06/28 07:56:33+00,1,,,,,188
0,0,N_601230550253962397,Main Streets Staging,Q2CK-EASL-HUTM,,,0,0, recently-added ,2021/06/28 07:56:33+00,1,,,,,189
0,0,N_601230550253962397,Main Streets Staging,Q2CK-GYJN-8ZDP,,,0,0, recently-added ,2021/06/28 07:56:33+00,1,,,,,190
-7910154.33695469,5215080.73618436,N_601230550253962397,Main Streets Staging,Q2CK-H4JE-2BSE,,"1 city hall plaza, boston, ma",42.3601431230712,-71.0581254063072, CITYHALL OUTSIDE recently-added ,2021/06/28 07:56:33+00,1,,,Outside,CITYHALL OUTSIDE,191
0,0,N_601230550253962397,Main Streets Staging,Q2CK-GASR-WMDM,,,0,0, recently-added ,2021/06/28 07:56:33+00,1,,,,,192
0,0,N_601230550253962397,Main Streets Staging,Q2CK-9VYY-9FBQ,,,0,0, recently-added ,2021/06/28 07:56:33+00,1,,,,,193
0,0,N_601230550253962397,Main Streets Staging,Q2CK-H5Z2-M7EB,,,0,0, recently-added ,2021/06/28 07:56:33+00,1,,,,,194
-13591946.3780132,4497545.18967124,N_601230550253962397,Main Streets Staging,Q2CK-ST9N-54RA,00:18:0a:23:ae:4c,,37.4180951010362,-122.098531723022, recently-added ,2021/06/28 07:56:33+00,1,,,,,195
0,0,N_601230550253962397,Main Streets Staging,Q2CK-HM4Z-KTLU,,,0,0, recently-added ,2021/06/28 07:56:33+00,1,,,,,196
0,0,N_601230550253962397,Main Streets Staging,Q2CK-FTCG-PW7D,,,0,0, recently-added ,2021/06/28 07:56:33+00,1,,,,,197
-13591946.3780132,4497545.18967124,N_601230550253962397,Main Streets Staging,Q2CK-NUQQ-BXFN,,,37.4180951010362,-122.098531723022, recently-added ,2021/06/28 07:56:33+00,1,,,,,198
-13591946.3780132,4497545.18967124,N_601230550253962397,Main Streets Staging,Q2CK-5PE9-LEGE,,,37.4180951010362,-122.098531723022, recently-added ,2021/06/28 07:56:33+00,1,,,,,199
0,0,N_601230550253962397,Main Streets Staging,Q2CK-B4DN-LK75,,,0,0, recently-added ,2021/06/28 07:56:33+00,1,,,,,200
0,0,N_601230550253962397,Main Streets Staging,Q2CK-AAC3-83DP,,,0,0, recently-added ,2021/06/28 07:56:33+00,1,,,,,201
-7916455.53150113,5207618.46209409,N_601230550253962845,Jamaica Plain,Q2CK-NLSB-E9TE,JP-BFDE28-AP3,"746 Centre Street, Jamaica Plain",42.31059,-71.11473, recently-added ,2021/06/28 07:56:34+00,1,,,,,202
-7916495.23634603,5207371.84915115,N_601230550253962845,Jamaica Plain,Q2CK-SPCX-L9G6,JP-Curtis Hall-BCYF-AP1,"20 South St, Jamaica Plain, MA 02130",42.3089517038401,-71.1150866746902, BCYF BCYF-Grant Curtis-Hall Outside ,2021/06/28 07:56:34+00,1,BCYF,,Outside,Curtis Hall,203
-7916428.13000967,5207627.43546447,N_601230550253962845,Jamaica Plain,Q2CK-NER6-DHDA,JP-BFDE28-AP1,"746 Centre Street, Jamaica Plain",42.3106496109831,-71.1144838482141, recently-added ,2021/06/28 07:56:34+00,1,,,,,204
-7916455.53150113,5207618.46209409,N_601230550253962845,Jamaica Plain,Q2CK-NLUC-P9T6,JP-BFDE28-AP2,"746 Centre Street, Jamaica Plain",42.31059,-71.11473, recently-added ,2021/06/28 07:56:34+00,1,,,,,205
-7916492.84768889,5207337.21362271,N_601230550253962845,Jamaica Plain,Q2CK-LHCB-ZA9D,JP-Curtis Hall-BCYF-AP2,"20 South St, Jamaica Plain, MA 02130",42.308721610096,-71.1150652170181, BCYF Centre-South-Main-Street Curtis-Hall Outside ,2021/06/28 07:56:34+00,1,BCYF,,Outside,Centre South Main Street Curtis Hall,206
-7916551.66837083,5207223.66843261,N_601230550253962845,Jamaica Plain,Q2CK-L8D3-H68P,JP-Curtis Hall-BCYF-AP3,"55 South St, Jamaica Plain",42.3079672909511,-71.1155936121941, Centre-South-Main-Street Lightpole Outside ,2021/06/28 07:56:34+00,1,,,Outside,Centre South Main Street,207
-7914626.5522674,5210878.04262713,L_601230550253962684,YEE Tremont,Q2CK-2LH9-EPAT,BCYF_DYEE-Back,"1483 Tremont St, Boston, MA",42.33224,-71.0983, DYEE Inside ,2021/06/28 07:56:35+00,1,DYEE,,Inside,,208
-7914626.5522674,5210878.04262713,L_601230550253962684,YEE Tremont,Q2CK-5YRN-C3K6,BCYF_DYEE HQ_2ndFloor_AP1 ,"1483 Tremont St, Boston, MA",42.33224,-71.0983, DYEE Inside ,2021/06/28 07:56:35+00,1,DYEE,,Inside,,209
-7914626.5522674,5210878.04262713,L_601230550253962684,YEE Tremont,Q2CK-ZT6W-W7FT,BCYF_DYEE HQ_2ndFloor_AP2,"1483 Tremont St, Boston, MA",42.33224,-71.0983, DYEE Inside ,2021/06/28 07:56:35+00,1,DYEE,,Inside,,210
-7914626.5522674,5210878.04262713,L_601230550253962684,YEE Tremont,Q2CK-H8DS-PYK5,BCYF_DYEE HQ_2ndFloor_AP3,"1483 Tremont St, Boston, MA",42.33224,-71.0983, DYEE Inside ,2021/06/28 07:56:35+00,1,DYEE,,Inside,,211
-7914626.5522674,5210878.04262713,L_601230550253962684,YEE Tremont,Q2KD-EVN5-DSFP,BCYF-DYEE-2ndFloor-AP,"1483 Tremont St., Boston, MA",42.33224,-71.0983, DYEE Inside ,2021/06/28 07:56:35+00,1,DYEE,,Inside,,212
-7914626.5522674,5210878.04262713,L_601230550253962684,YEE Tremont,Q2FD-YZLD-HNUS,BCYF_Tremont_DYEE_2nd floor,"1483 Tremont St, Boston, MA",42.33224,-71.0983, DYEE Inside ,2021/06/28 07:56:35+00,1,DYEE,,Inside,,213
-7909614.11230751,5217126.35976929,L_601230550253962688,Navy Yard,Q2EK-HAXQ-8XW4,NavyYard-AP2,Navy yard Cambridge,42.3737202378565,-71.053272485733,,2021/06/28 07:56:36+00,1,,,,,214
-7909613.51514323,5217120.98529076,L_601230550253962688,Navy Yard,Q2EK-R989-H6FG,NavyYard-AP3,Navy yard Cambridge,42.3736845704699,-71.053267121315,,2021/06/28 07:56:36+00,1,,,,,215
-7909615.90380036,5217135.31723355,L_601230550253962688,Navy Yard,Q2EK-7S8P-KQQL,NavyYard-AP1,navy yard cambridge,42.373779683456,-71.0532885789871,,2021/06/28 07:56:36+00,1,,,,,216
-7911029.81951987,5208428.35937614,N_601230550253965255,Strand Theatre - External,Q2QD-428C-NVTB,Strand_Centered above external set of doors,"543 Columbia Road Boston, MA 02125",42.31597,-71.06599, Outside ,2021/06/28 07:56:37+00,1,,,Outside,,217
-7911029.81951987,5208428.35937614,N_601230550253965255,Strand Theatre - External,Q2QD-42EC-LQ5Z,Strand_Marquee support left,"543 Columbia Road Boston, MA 02125",42.31597,-71.06599, Outside ,2021/06/28 07:56:37+00,1,,,Outside,,218
-7911029.81951987,5208428.35937614,N_601230550253965255,Strand Theatre - External,Q2QD-86JE-GS2B,Strand_Marquee support right,"543 Columbia Road
Boston, MA 02125",42.31597,-71.06599, Outside ,2021/06/28 07:56:37+00,1,,,Outside,,219
-7911029.81951987,5208428.35937614,N_601230550253965256,Strand Theatre - Internal,Q2KD-6HAC-QJAE,Strand_Orchestra lobby_AP2,"543 Columbia Rd, Boston, MA 02125",42.31597,-71.06599, Inside ,2021/06/28 07:56:38+00,1,,,Inside,,220
-7911029.81951987,5208428.35937614,N_601230550253965256,Strand Theatre - Internal,Q2KD-JUWB-SVBB,Strand_Camera room theatre wall ,"543 Columbia Rd, Boston, MA 02125",42.31597,-71.06599, Inside ,2021/06/28 07:56:38+00,1,,,Inside,,221
-7911029.81951987,5208428.35937614,N_601230550253965256,Strand Theatre - Internal,Q2KD-363A-MRZV,Strand_Camera room office left,"543 Columbia Rd, Boston, MA 02125",42.31597,-71.06599, Inside ,2021/06/28 07:56:38+00,1,,,Inside,,222
-7911029.81951987,5208428.35937614,N_601230550253965256,Strand Theatre - Internal,Q2LD-ENHA-3CRX,Strand_F.O.H,"543 Columbia Rd, Boston, MA 02125",42.31597,-71.06599, Inside ,2021/06/28 07:56:38+00,1,,,Inside,,223
-7911029.81951987,5208428.35937614,N_601230550253965256,Strand Theatre - Internal,Q2KD-T5KV-QQRN,Strand_Stage Right ,"543 Columbia Rd, Boston, MA 02125",42.31597,-71.06599, Inside ,2021/06/28 07:56:38+00,1,,,Inside,,224
-7911029.81951987,5208428.35937614,N_601230550253965256,Strand Theatre - Internal,Q2KD-V49N-RSA2,Strand_Orchestra lobby_AP1,"543 Columbia Rd, Boston, MA 02125",42.31597,-71.06599, Inside ,2021/06/28 07:56:38+00,1,,,Inside,,225
-7911029.81951987,5208428.35937614,N_601230550253965256,Strand Theatre - Internal,Q2KD-6H83-WZ3E,Strand_Box Office ceiling,"543 Columbia Rd, Boston, MA 02125",42.31597,-71.06599, Inside ,2021/06/28 07:56:38+00,1,,,Inside,,226
-7911029.81951987,5208428.35937614,N_601230550253965256,Strand Theatre - Internal,Q2KD-DQJU-LYTD,Strand_Stage Left,"543 Columbia Rd, Boston, MA 02125",42.31597,-71.06599, Inside ,2021/06/28 07:56:38+00,1,,,Inside,,227
-7911029.81951987,5208428.35937614,N_601230550253965256,Strand Theatre - Internal,Q2KD-4MAV-QUR8,Strand_Camera room office right,"543 Columbia Rd, Boston, MA 02125",42.31597,-71.06599, Inside ,2021/06/28 07:56:38+00,1,,,Inside,,228
-7911029.81951987,5208428.35937614,N_601230550253965256,Strand Theatre - Internal,Q2KD-4CVV-PPU5,Strand_Orchestra lobby_AP3,"543 Columbia Rd, Boston, MA 02125",42.31597,-71.06599, Inside ,2021/06/28 07:56:38+00,1,,,Inside,,229
-7910793.82219939,5214375.24646151,N_568579452955527921,Parks,Q2CK-MP93-YDN3,PARKS-COMMONEAST-AP1,"139 Tremont St, Boston, MA 02111",42.35546,-71.06387, Boston-Common ,2021/06/28 07:56:14+00,1,,,,Boston Common,230
-7911267.14313568,5214258.70971467,N_568579452955527921,Parks,Q2CK-N8A5-VD4F,PARKS-COMMONWEST-AP3,"139 Tremont St, Boston, MA 02111",42.3546863818941,-71.0681219143136, recently-added ,2021/06/28 07:56:14+00,1,,,,,231
-7916711.121052,5208373.74182113,N_568579452955527921,Parks,Q2CD-6YGF-H7PW,PARKS-JAMAICAPOND-AP3,"507 Jamaicaway, Jamaica Plain, MA - inside boat house",42.3156072,-71.117026, Jamaica-Pond Outside ,2021/06/28 07:56:14+00,1,,,Outside,Jamaica Pond,232
-7910766.63937463,5214410.24200212,N_568579452955527921,Parks,Q2CK-NK2U-62SL,PARKS-COMMONEAST-AP2,"139 Tremont St, Boston, MA 02111",42.3556923127074,-71.0636258125305, Boston-Common ,2021/06/28 07:56:14+00,1,,,,Boston Common,233
-7916707.22966667,5202882.20011551,N_568579452955527921,Parks,Q2AK-U4TT-J95L,PARKS-MTHOPE-AP1,"Mt Hope Cemetery, Hyde Park, MA - Cummings Hwy & Canterbury St",42.2791186669152,-71.1169910430908, Mount-Hope-Cemetery Outside ,2021/06/28 07:56:14+00,1,,,Outside,Mount Hope Cemetery,234
-7911144.12729328,5214273.04165748,N_568579452955527921,Parks,Q2CK-L3KB-8LWG,PARKS-COMMONWEST-AP4,"139 Tremont St, Boston, MA 02111",42.3547815236464,-71.0670168441995, recently-added ,2021/06/28 07:56:14+00,1,,,,,235
-7913555.3025436,5206193.27119466,N_568579452955527921,Parks,Q2AK-ZBZB-FW8M,PARKS-FRANKLIN-AP1,"1 Circuit Dr., Roxbury, MA",42.3011216,-71.0886768, Franklin-Park Outside ,2021/06/28 07:56:14+00,1,,,Outside,Franklin Park,236
-7913555.3025436,5206193.27119466,N_568579452955527921,Parks,Q2DD-4KWV-JRMB,PARKS-FRANKLIN-AP2,"1 Circuit Dr., Roxbury, MA",42.3011216,-71.0886768, Franklin-Park Outside ,2021/06/28 07:56:14+00,1,,,Outside,Franklin Park,237
-7910846.36080647,5214190.18696366,N_568579452955527921,Parks,Q2EK-WDLM-65C6,PARKS-COMMONEAST-AP4 ,"139 Tremont St, Boston, MA 02111",42.3542314956852,-71.0643419623375, Boston-Common ,2021/06/28 07:56:14+00,1,,,,Boston Common,238
-7916711.121052,5208373.74182113,N_568579452955527921,Parks,Q2CK-7CSR-NUQK,PARKS-JAMAICAPOND-AP2,"507 Jamaicaway, Jamaica Plain, MA - bandstand",42.3156072,-71.117026, Jamaica-Pond Outside ,2021/06/28 07:56:14+00,1,,,Outside,Jamaica Pond,239
-7916710.57005438,5208368.62830857,N_568579452955527921,Parks,Q2CK-7ANU-RF72,PARKS-JAMAICAPOND-AP1,"507 Jamaicaway, Jamaica Plain, MA - boat house",42.3155732331151,-71.1170210503042, Jamaica-Pond Outside ,2021/06/28 07:56:14+00,1,,,Outside,Jamaica Pond,240
-7909171.54099616,5205173.36864551,N_568579452955534204,Dorchester,Q2CK-S8TK-5BFB,DOT-MURPHY-AP1,"1 Worrell St, Dorchester, MA 02122",42.2943449,-71.0492968, BPS Murphy-School Outside ,2021/06/28 07:56:16+00,1,BPS,,Outside,Murphy School,241
-7911567.60397989,5205967.47959864,N_568579452955534204,Dorchester,Q2CK-CJQV-TSTH,DOT-MARSHALL-AP2,"35 Westville St., Dorchester, MA",42.2996214,-71.070821, BPS Marshall-School Outside UP-Academy ,2021/06/28 07:56:16+00,1,BPS,,Outside,Marshall School UP Academy,242
-7909183.02916761,5205201.22498885,N_568579452955534204,Dorchester,Q2CK-FZJ6-67HG,DOT-MURPHY-AP2,"1 worrell st Dorchester, ma",42.29453,-71.0494, BCYF-Grant BPS Murphy-School Outside ,2021/06/28 07:56:16+00,1,,,Outside,Murphy School,243
-7910507.76865774,5207244.56918254,N_568579452955534204,Dorchester,Q2CK-F72Z-RK25,DOT-MATHER-AP1,"1 Parish St., Dorchester, MA",42.3081061423888,-71.0613003373146, BPS Mather-School Outside ,2021/06/28 07:56:16+00,1,BPS,,Outside,Mather School,244
-7911877.49517836,5206929.8178402,N_568579452955534204,Dorchester,Q2CK-GMBW-WDLD,DOT-HOLLAND-AP1,"85 Olney St., Dorchester, MA",42.3060151,-71.0736048, BCYF Holland-Comm-Center Outside ,2021/06/28 07:56:16+00,1,BCYF,,Outside,Holland Comm Center,245
